{"fetched_at":"2026-07-24T07:06:09.639Z","source":"https://celestrak.org/NORAD/elements/gp.php?GROUP=planet&FORMAT=JSON","constellation":"superdove","records":[{"OBJECT_NAME":"FLOCK 4H-16","OBJECT_ID":"2025-276BF","EPOCH":"2026-07-23T04:00:25.407072","CLASSIFICATION_TYPE":"U","MEAN_MOTION":15.20223663,"ECCENTRICITY":0.0003356,"INCLINATION":97.4221,"RA_OF_ASC_NODE":277.1788,"ARG_OF_PERICENTER":216.5615,"MEAN_ANOMALY":143.5392,"EPHEMERIS_TYPE":0,"NORAD_CAT_ID":66719,"ELEMENT_SET_NO":999,"REV_AT_EPOCH":3588,"BSTAR":0.00032518,"MEAN_MOTION_DOT":0.00006984,"MEAN_MOTION_DDOT":0},{"OBJECT_NAME":"FLOCK 4H-18","OBJECT_ID":"2025-276BH","EPOCH":"2026-07-23T10:28:53.158368","CLASSIFICATION_TYPE":"U","MEAN_MOTION":15.20169453,"ECCENTRICITY":0.000241,"INCLINATION":97.4163,"RA_OF_ASC_NODE":277.2507,"ARG_OF_PERICENTER":243.0497,"MEAN_ANOMALY":117.0492,"EPHEMERIS_TYPE":0,"NORAD_CAT_ID":66721,"ELEMENT_SET_NO":999,"REV_AT_EPOCH":3592,"BSTAR":0.00030322,"MEAN_MOTION_DOT":0.00006496,"MEAN_MOTION_DDOT":0},{"OBJECT_NAME":"FLOCK 4H-19","OBJECT_ID":"2025-276BJ","EPOCH":"2026-07-23T03:59:43.847808","CLASSIFICATION_TYPE":"U","MEAN_MOTION":15.2134695,"ECCENTRICITY":0.00029455,"INCLINATION":97.4162,"RA_OF_ASC_NODE":277.4619,"ARG_OF_PERICENTER":134.1402,"MEAN_ANOMALY":226.0077,"EPHEMERIS_TYPE":0,"NORAD_CAT_ID":66722,"ELEMENT_SET_NO":999,"REV_AT_EPOCH":3520,"BSTAR":0.00026095141,"MEAN_MOTION_DOT":0.00005777,"MEAN_MOTION_DDOT":0},{"OBJECT_NAME":"FLOCK 4H-20","OBJECT_ID":"2025-276BK","EPOCH":"2026-07-23T04:01:34.483872","CLASSIFICATION_TYPE":"U","MEAN_MOTION":15.21519188,"ECCENTRICITY":0.0003578,"INCLINATION":97.42,"RA_OF_ASC_NODE":277.5752,"ARG_OF_PERICENTER":149.8505,"MEAN_ANOMALY":210.2937,"EPHEMERIS_TYPE":0,"NORAD_CAT_ID":66723,"ELEMENT_SET_NO":999,"REV_AT_EPOCH":3516,"BSTAR":0.00031576,"MEAN_MOTION_DOT":0.00007042,"MEAN_MOTION_DDOT":0},{"OBJECT_NAME":"FLOCK 4H-21","OBJECT_ID":"2025-276BL","EPOCH":"2026-07-23T15:52:57.779040","CLASSIFICATION_TYPE":"U","MEAN_MOTION":15.2111155,"ECCENTRICITY":0.0003439,"INCLINATION":97.4166,"RA_OF_ASC_NODE":277.8768,"ARG_OF_PERICENTER":148.0665,"MEAN_ANOMALY":212.078,"EPHEMERIS_TYPE":0,"NORAD_CAT_ID":66724,"ELEMENT_SET_NO":999,"REV_AT_EPOCH":3523,"BSTAR":0.00031042,"MEAN_MOTION_DOT":0.00006839,"MEAN_MOTION_DDOT":0},{"OBJECT_NAME":"FLOCK 4H-22","OBJECT_ID":"2025-276BM","EPOCH":"2026-07-23T04:23:04.780608","CLASSIFICATION_TYPE":"U","MEAN_MOTION":15.20602314,"ECCENTRICITY":0.0001262,"INCLINATION":97.4157,"RA_OF_ASC_NODE":277.1088,"ARG_OF_PERICENTER":230.0101,"MEAN_ANOMALY":130.1023,"EPHEMERIS_TYPE":0,"NORAD_CAT_ID":66725,"ELEMENT_SET_NO":999,"REV_AT_EPOCH":3589,"BSTAR":0.00032654,"MEAN_MOTION_DOT":0.00007091,"MEAN_MOTION_DDOT":0},{"OBJECT_NAME":"FLOCK 4H-23","OBJECT_ID":"2025-276BN","EPOCH":"2026-07-23T04:08:57.058368","CLASSIFICATION_TYPE":"U","MEAN_MOTION":15.20144277,"ECCENTRICITY":0.0003654,"INCLINATION":97.4226,"RA_OF_ASC_NODE":277.1854,"ARG_OF_PERICENTER":207.7582,"MEAN_ANOMALY":152.3459,"EPHEMERIS_TYPE":0,"NORAD_CAT_ID":66726,"ELEMENT_SET_NO":999,"REV_AT_EPOCH":3588,"BSTAR":0.00031247,"MEAN_MOTION_DOT":0.00006692,"MEAN_MOTION_DDOT":0},{"OBJECT_NAME":"FLOCK 4H-24","OBJECT_ID":"2025-276BP","EPOCH":"2026-07-23T11:40:07.094208","CLASSIFICATION_TYPE":"U","MEAN_MOTION":15.20259695,"ECCENTRICITY":0.0002857,"INCLINATION":97.422,"RA_OF_ASC_NODE":277.5235,"ARG_OF_PERICENTER":223.0833,"MEAN_ANOMALY":137.0179,"EPHEMERIS_TYPE":0,"NORAD_CAT_ID":66727,"ELEMENT_SET_NO":999,"REV_AT_EPOCH":3593,"BSTAR":0.00033148,"MEAN_MOTION_DOT":0.00007128,"MEAN_MOTION_DDOT":0},{"OBJECT_NAME":"FLOCK 4H-25","OBJECT_ID":"2025-276BQ","EPOCH":"2026-07-23T03:42:21.824064","CLASSIFICATION_TYPE":"U","MEAN_MOTION":15.21018493,"ECCENTRICITY":0.0002189,"INCLINATION":97.4178,"RA_OF_ASC_NODE":277.3688,"ARG_OF_PERICENTER":120.0687,"MEAN_ANOMALY":240.0766,"EPHEMERIS_TYPE":0,"NORAD_CAT_ID":66728,"ELEMENT_SET_NO":999,"REV_AT_EPOCH":3518,"BSTAR":0.0003173,"MEAN_MOTION_DOT":0.00006973,"MEAN_MOTION_DDOT":0},{"OBJECT_NAME":"FLOCK 4H-26","OBJECT_ID":"2025-276BR","EPOCH":"2026-07-23T15:40:02.248320","CLASSIFICATION_TYPE":"U","MEAN_MOTION":15.19983279,"ECCENTRICITY":0.0003739,"INCLINATION":97.4174,"RA_OF_ASC_NODE":277.4608,"ARG_OF_PERICENTER":224.7356,"MEAN_ANOMALY":135.3578,"EPHEMERIS_TYPE":0,"NORAD_CAT_ID":66729,"ELEMENT_SET_NO":999,"REV_AT_EPOCH":3595,"BSTAR":0.00029479,"MEAN_MOTION_DOT":0.0000628,"MEAN_MOTION_DDOT":0},{"OBJECT_NAME":"FLOCK 4H-27","OBJECT_ID":"2025-276BS","EPOCH":"2026-07-23T15:30:59.690880","CLASSIFICATION_TYPE":"U","MEAN_MOTION":15.20847837,"ECCENTRICITY":0.0001925,"INCLINATION":97.4153,"RA_OF_ASC_NODE":277.7018,"ARG_OF_PERICENTER":123.9713,"MEAN_ANOMALY":236.1706,"EPHEMERIS_TYPE":0,"NORAD_CAT_ID":66730,"ELEMENT_SET_NO":999,"REV_AT_EPOCH":3597,"BSTAR":0.00028481,"MEAN_MOTION_DOT":0.0000622,"MEAN_MOTION_DDOT":0},{"OBJECT_NAME":"FLOCK 4H-29","OBJECT_ID":"2025-276BU","EPOCH":"2026-07-23T04:05:54.554784","CLASSIFICATION_TYPE":"U","MEAN_MOTION":15.2011558,"ECCENTRICITY":0.0002003,"INCLINATION":97.4156,"RA_OF_ASC_NODE":276.9689,"ARG_OF_PERICENTER":233.1622,"MEAN_ANOMALY":126.943,"EPHEMERIS_TYPE":0,"NORAD_CAT_ID":66732,"ELEMENT_SET_NO":999,"REV_AT_EPOCH":3588,"BSTAR":0.00030295,"MEAN_MOTION_DOT":0.0000648,"MEAN_MOTION_DDOT":0},{"OBJECT_NAME":"FLOCK 4H-30","OBJECT_ID":"2025-276BV","EPOCH":"2026-07-23T03:53:18.721536","CLASSIFICATION_TYPE":"U","MEAN_MOTION":15.20242673,"ECCENTRICITY":0.000318,"INCLINATION":97.4215,"RA_OF_ASC_NODE":277.1755,"ARG_OF_PERICENTER":224.7454,"MEAN_ANOMALY":135.3525,"EPHEMERIS_TYPE":0,"NORAD_CAT_ID":66733,"ELEMENT_SET_NO":999,"REV_AT_EPOCH":3588,"BSTAR":0.0003341021,"MEAN_MOTION_DOT":0.00007181,"MEAN_MOTION_DDOT":0},{"OBJECT_NAME":"FLOCK 4H-31","OBJECT_ID":"2025-276BW","EPOCH":"2026-07-23T10:44:25.118016","CLASSIFICATION_TYPE":"U","MEAN_MOTION":15.2001562,"ECCENTRICITY":0.0002448,"INCLINATION":97.4154,"RA_OF_ASC_NODE":277.2065,"ARG_OF_PERICENTER":230.1398,"MEAN_ANOMALY":129.9622,"EPHEMERIS_TYPE":0,"NORAD_CAT_ID":66734,"ELEMENT_SET_NO":999,"REV_AT_EPOCH":3592,"BSTAR":0.00028824,"MEAN_MOTION_DOT":0.00006144,"MEAN_MOTION_DDOT":0},{"OBJECT_NAME":"FLOCK 4H-32","OBJECT_ID":"2025-276BX","EPOCH":"2026-07-23T10:26:04.225632","CLASSIFICATION_TYPE":"U","MEAN_MOTION":15.20134862,"ECCENTRICITY":0.0003548,"INCLINATION":97.421,"RA_OF_ASC_NODE":277.3979,"ARG_OF_PERICENTER":221.8622,"MEAN_ANOMALY":138.2342,"EPHEMERIS_TYPE":0,"NORAD_CAT_ID":66735,"ELEMENT_SET_NO":999,"REV_AT_EPOCH":3592,"BSTAR":0.0002949,"MEAN_MOTION_DOT":0.0000631,"MEAN_MOTION_DDOT":0},{"OBJECT_NAME":"FLOCK 4H-33","OBJECT_ID":"2025-276BY","EPOCH":"2026-07-23T15:35:56.130144","CLASSIFICATION_TYPE":"U","MEAN_MOTION":15.21264267,"ECCENTRICITY":0.0003412,"INCLINATION":97.4206,"RA_OF_ASC_NODE":278.0166,"ARG_OF_PERICENTER":142.5041,"MEAN_ANOMALY":217.6433,"EPHEMERIS_TYPE":0,"NORAD_CAT_ID":66736,"ELEMENT_SET_NO":999,"REV_AT_EPOCH":3598,"BSTAR":0.00026558,"MEAN_MOTION_DOT":0.00005867,"MEAN_MOTION_DDOT":0}]}
