FLOCK 4H-16             
1 66719U 25276BF  26204.16696073  .00006984  00000+0  32518-3 0  9991
2 66719  97.4221 277.1788 0003356 216.5615 143.5392 15.20223663 35880
FLOCK 4H-18             
1 66721U 25276BH  26204.43672637  .00006496  00000+0  30322-3 0  9993
2 66721  97.4163 277.2507 0002410 243.0497 117.0492 15.20169453 35929
FLOCK 4H-19             
1 66722U 25276BJ  26204.16647972  .00005777  00000+0  26095-3 0  9991
2 66722  97.4162 277.4619 0002945 134.1402 226.0077 15.21346950 35205
FLOCK 4H-20             
1 66723U 25276BK  26204.16776023  .00007042  00000+0  31576-3 0  9999
2 66723  97.4200 277.5752 0003578 149.8505 210.2937 15.21519188 35168
FLOCK 4H-21             
1 66724U 25276BL  26204.66177985  .00006839  00000+0  31042-3 0  9998
2 66724  97.4166 277.8768 0003439 148.0665 212.0780 15.21111550 35239
FLOCK 4H-22             
1 66725U 25276BM  26204.18269422  .00007091  00000+0  32654-3 0  9995
2 66725  97.4157 277.1088 0001262 230.0101 130.1023 15.20602314 35891
FLOCK 4H-23             
1 66726U 25276BN  26204.17288262  .00006692  00000+0  31247-3 0  9991
2 66726  97.4226 277.1854 0003654 207.7582 152.3459 15.20144277 35888
FLOCK 4H-24             
1 66727U 25276BP  26204.48619322  .00007128  00000+0  33148-3 0  9998
2 66727  97.4220 277.5235 0002857 223.0833 137.0179 15.20259695 35930
FLOCK 4H-25             
1 66728U 25276BQ  26204.15441926  .00006973  00000+0  31730-3 0  9998
2 66728  97.4178 277.3688 0002189 120.0687 240.0766 15.21018493 35188
FLOCK 4H-26             
1 66729U 25276BR  26204.65280380  .00006280  00000+0  29479-3 0  9997
2 66729  97.4174 277.4608 0003739 224.7356 135.3578 15.19983279 35957
FLOCK 4H-27             
1 66730U 25276BS  26204.64652420  .00006220  00000+0  28481-3 0  9992
2 66730  97.4153 277.7018 0001925 123.9713 236.1706 15.20847837 35972
FLOCK 4H-29             
1 66732U 25276BU  26204.17077031  .00006480  00000+0  30295-3 0  9995
2 66732  97.4156 276.9689 0002003 233.1622 126.9430 15.20115580 35886
FLOCK 4H-30             
1 66733U 25276BV  26204.16202224  .00007181  00000+0  33410-3 0  9990
2 66733  97.4215 277.1755 0003180 224.7454 135.3525 15.20242673 35889
FLOCK 4H-31             
1 66734U 25276BW  26204.44751294  .00006144  00000+0  28824-3 0  9999
2 66734  97.4154 277.2065 0002448 230.1398 129.9622 15.20015620 35923
FLOCK 4H-32             
1 66735U 25276BX  26204.43477113  .00006310  00000+0  29490-3 0  9999
2 66735  97.4210 277.3979 0003548 221.8622 138.2342 15.20134862 35923
FLOCK 4H-33             
1 66736U 25276BY  26204.64995521  .00005867  00000+0  26558-3 0  9999
2 66736  97.4206 278.0166 0003412 142.5041 217.6433 15.21264267 35982
